{
  "crs": {
    "type": "name",
    "properties": {
      "name": "urn:ogc:def:crs:EPSG::3857"
    }
  },
  "type": "FeatureCollection",
  "name": "graph",
  "features": [
    { "type": "Feature", "properties": { "id": 0 }, "geometry": { "type": "Point", "coordinates": [ -4.545, 3.901 ] } },
    { "type": "Feature", "properties": { "id": 1 }, "geometry": { "type": "Point", "coordinates": [ -1.373, 3.894 ] } },
    { "type": "Feature", "properties": { "id": 2 }, "geometry": { "type": "Point", "coordinates": [ 4.655, 3.906 ] } },
    { "type": "Feature", "properties": { "id": 3 }, "geometry": { "type": "Point", "coordinates": [ 4.682, -2.8 ] } },
    { "type": "Feature", "properties": { "id": 4 }, "geometry": { "type": "Point", "coordinates": [ 1.573, -2.872 ] } },
    { "type": "Feature", "properties": { "id": 5 }, "geometry": { "type": "Point", "coordinates": [ -1.441, -2.932 ] } },
    { "type": "Feature", "properties": { "id": 6 }, "geometry": { "type": "Point", "coordinates": [ 0, 0 ] } },
    { "type": "Feature", "properties": { "id": 7 }, "geometry": { "type": "Point", "coordinates": [ -1.405, 0.73 ] } },
    { "type": "Feature", "properties": { "id": 8 }, "geometry": { "type": "Point", "coordinates": [ -4.491, -3.335 ] } },
    { "type": "Feature", "properties": { "id": 9 }, "geometry": { "type": "Point", "coordinates": [ -4.548, -8.71 ] } },
    { "type": "Feature", "properties": { "id": 10 }, "geometry": { "type": "Point", "coordinates": [ -1.421, -8.653 ] } },
    { "type": "Feature", "properties": { "id": 11 }, "geometry": { "type": "Point", "coordinates": [ -4.49, 0.671 ] } },
    { "type": "Feature", "properties": { "id": 12 }, "geometry": { "type": "Point", "coordinates": [ -3.051, -5.553 ] } },
    { "type": "Feature", "properties": { "id": 13 }, "geometry": { "type": "Point", "coordinates": [ -3.051, -8.694 ] } },
    { "type": "Feature", "properties": { "id": 10000, "startid": 2, "endid": 1 }, "geometry": { "type": "LineString", "coordinates": [ [ 4.655, 3.906 ], [ -1.373, 3.894 ] ] } },
    { "type": "Feature", "properties": { "id": 10001, "startid": 2, "endid": 3 }, "geometry": { "type": "LineString", "coordinates": [ [ 4.655, 3.906 ], [ 4.682, -2.8 ] ] } },
    { "type": "Feature", "properties": { "id": 10002, "startid": 3, "endid": 2 }, "geometry": { "type": "LineString", "coordinates": [ [ 4.682, -2.8 ], [ 4.655, 3.906 ] ] } },
    { "type": "Feature", "properties": { "id": 10003, "startid": 3, "endid": 4 }, "geometry": { "type": "LineString", "coordinates": [ [ 4.682, -2.8 ], [ 1.573, -2.872 ] ] } },
    { "type": "Feature", "properties": { "id": 10004, "startid": 4, "endid": 3 }, "geometry": { "type": "LineString", "coordinates": [ [ 1.573, -2.872 ], [ 4.682, -2.8 ] ] } },
    { "type": "Feature", "properties": { "id": 10005, "startid": 4, "endid": 5 }, "geometry": { "type": "LineString", "coordinates": [ [ 1.573, -2.872 ], [ -1.441, -2.932 ] ] } },
    { "type": "Feature", "properties": { "id": 10006, "startid": 6, "endid": 7 }, "geometry": { "type": "LineString", "coordinates": [ [ 0, 0 ], [ -1.405, 0.73 ] ] } },
    { "type": "Feature", "properties": { "id": 10007, "startid": 5, "endid": 4 }, "geometry": { "type": "LineString", "coordinates": [ [ -1.441, -2.932 ], [ 1.573, -2.872 ] ] } },
    { "type": "Feature", "properties": { "id": 10008, "startid": 5, "endid": 10 }, "geometry": { "type": "LineString", "coordinates": [ [ -1.441, -2.932 ], [ -1.421, -8.653 ] ] } },
    { "type": "Feature", "properties": { "id": 10009, "startid": 5, "endid": 7 }, "geometry": { "type": "LineString", "coordinates": [ [ -1.441, -2.932 ], [ -1.405, 0.73 ] ] } },
    { "type": "Feature", "properties": { "id": 10010, "startid": 8, "endid": 9 }, "geometry": { "type": "LineString", "coordinates": [ [ -4.491, -3.335 ], [ -4.548, -8.71 ] ] } },
    { "type": "Feature", "properties": { "id": 10011, "startid": 8, "endid": 11 }, "geometry": { "type": "LineString", "coordinates": [ [ -4.491, -3.335 ], [ -4.49, 0.671 ] ] } },
    { "type": "Feature", "properties": { "id": 10012, "startid": 1, "endid": 0 }, "geometry": { "type": "LineString", "coordinates": [ [ -1.373, 3.894 ], [ -4.545, 3.901 ] ] } },
    { "type": "Feature", "properties": { "id": 10013, "startid": 1, "endid": 2 }, "geometry": { "type": "LineString", "coordinates": [ [ -1.373, 3.894 ], [ 4.655, 3.906 ] ] } },
    { "type": "Feature", "properties": { "id": 10014, "startid": 1, "endid": 7 }, "geometry": { "type": "LineString", "coordinates": [ [ -1.373, 3.894 ], [ -1.405, 0.73 ] ] } },
    { "type": "Feature", "properties": { "id": 10015, "startid": 7, "endid": 6 }, "geometry": { "type": "LineString", "coordinates": [ [ -1.405, 0.73 ], [ 0, 0 ] ] } },
    { "type": "Feature", "properties": { "id": 10016, "startid": 7, "endid": 5 }, "geometry": { "type": "LineString", "coordinates": [ [ -1.405, 0.73 ], [ -1.441, -2.932 ] ] } },
    { "type": "Feature", "properties": { "id": 10017, "startid": 7, "endid": 11 }, "geometry": { "type": "LineString", "coordinates": [ [ -1.405, 0.73 ], [ -4.49, 0.671 ] ] } },
    { "type": "Feature", "properties": { "id": 10018, "startid": 7, "endid": 1 }, "geometry": { "type": "LineString", "coordinates": [ [ -1.405, 0.73 ], [ -1.373, 3.894 ] ] } },
    { "type": "Feature", "properties": { "id": 10019, "startid": 0, "endid": 1 }, "geometry": { "type": "LineString", "coordinates": [ [ -4.545, 3.901 ], [ -1.373, 3.894 ] ] } },
    { "type": "Feature", "properties": { "id": 10020, "startid": 0, "endid": 11 }, "geometry": { "type": "LineString", "coordinates": [ [ -4.545, 3.901 ], [ -4.49, 0.671 ] ] } },
    { "type": "Feature", "properties": { "id": 10021, "startid": 11, "endid": 7 }, "geometry": { "type": "LineString", "coordinates": [ [ -4.49, 0.671 ], [ -1.405, 0.73 ] ] } },
    { "type": "Feature", "properties": { "id": 10022, "startid": 11, "endid": 8 }, "geometry": { "type": "LineString", "coordinates": [ [ -4.49, 0.671 ], [ -4.491, -3.335 ] ] } },
    { "type": "Feature", "properties": { "id": 10023, "startid": 11, "endid": 0 }, "geometry": { "type": "LineString", "coordinates": [ [ -4.49, 0.671 ], [ -4.545, 3.901 ] ] } },
    { "type": "Feature", "properties": { "id": 10024, "startid": 9, "endid": 8 }, "geometry": { "type": "LineString", "coordinates": [ [ -4.548, -8.71 ], [ -4.491, -3.335 ] ] } },
    { "type": "Feature", "properties": { "id": 10025, "startid": 9, "endid": 13 }, "geometry": { "type": "LineString", "coordinates": [ [ -4.548, -8.71 ], [ -3.051, -8.694 ] ] } },
    { "type": "Feature", "properties": { "id": 10026, "startid": 10, "endid": 5 }, "geometry": { "type": "LineString", "coordinates": [ [ -1.421, -8.653 ], [ -1.441, -2.932 ] ] } },
    { "type": "Feature", "properties": { "id": 10027, "startid": 10, "endid": 13 }, "geometry": { "type": "LineString", "coordinates": [ [ -1.421, -8.653 ], [ -3.051, -8.694 ] ] } },
    { "type": "Feature", "properties": { "id": 10028, "startid": 12, "endid": 13 }, "geometry": { "type": "LineString", "coordinates": [ [ -3.051, -5.553 ], [ -3.051, -8.694 ] ] } },
    { "type": "Feature", "properties": { "id": 10029, "startid": 13, "endid": 12 }, "geometry": { "type": "LineString", "coordinates": [ [ -3.051, -8.694 ], [ -3.051, -5.553 ] ] } },
    { "type": "Feature", "properties": { "id": 10030, "startid": 13, "endid": 9 }, "geometry": { "type": "LineString", "coordinates": [ [ -3.051, -8.694 ], [ -4.548, -8.71 ] ] } },
    { "type": "Feature", "properties": { "id": 10031, "startid": 13, "endid": 10 }, "geometry": { "type": "LineString", "coordinates": [ [ -3.051, -8.694 ], [ -1.421, -8.653 ] ] } }
  ]
}
